CCSDS_OEM_VERS = 2.0  
CREATION_DATE  = 2026-05-08T16:26:59
ORIGINATOR     = ESOC/OPS-GFA                            
 
 



META_START
OBJECT_NAME          = LISA                                    
OBJECT_ID            = -1000                                   
CENTER_NAME          = SUN                     
REF_FRAME            = EME2000 
TIME_SYSTEM          = TCB
START_TIME           = 2036-12-23T00:00:30.346418            
STOP_TIME            = 2047-09-07T23:08:15.093369            
INTERPOLATION        = HERMITE                                 
INTERPOLATION_DEGREE = 7                                       
META_STOP

2046-10-06T21:13:00.424030     1.48335976710672557e+08   -2.29151540324150771e+07   -9.01482191814555600e+06    4.75126744517453314e+00    2.69364112217610270e+01    1.14769233636705543e+01   -5.79031247450211732e-06    8.94679949084107713e-07    3.51965041561138104e-07
2046-10-07T17:33:24.479872     1.48668348062245488e+08   -2.09404309571834989e+07   -8.17352075281789154e+06    4.32676183471134834e+00    2.69991069639573524e+01    1.15014956050012120e+01   -5.80419159595925587e-06    8.17722136054329076e-07    3.19173815121053383e-07
2046-10-08T13:53:48.535715     1.48969599283544600e+08   -1.89613235355878435e+07   -7.33050828687556647e+06    3.90128384300787179e+00    2.70561603517002602e+01    1.15236638978386576e+01   -5.81687096596676590e-06    7.40570498765935763e-07    2.86306072340466448e-07
2046-10-09T10:14:12.591556     1.49239662332175583e+08   -1.69782454398533292e+07   -6.48596075111259520e+06    3.47492144425264371e+00    2.71075577633050990e+01    1.15434228827086649e+01   -5.82834724602579155e-06    6.63240639582530912e-07    2.53368463832408852e-07
2046-10-10T06:34:36.647398     1.49478475614713907e+08   -1.49916112969749458e+07   -5.64005475058887154e+06    3.04776284953257282e+00    2.71532867214036031e+01    1.15607676878701771e+01   -5.83861730121129011e-06    5.85748210269805649e-07    2.20367660206223448e-07
2046-10-11T02:55:00.703241     1.49685984053875297e+08   -1.30018365961005688e+07   -4.79296722491894290e+06    2.61989649261998458e+00    2.71933358963145615e+01    1.15756939306779802e+01   -5.84767818055520466e-06    5.08108905121813568e-07    1.87310349240775994e-07
2046-10-11T23:15:24.759083     1.49862139184942573e+08   -1.10093375906212330e+07   -3.94487540616668761e+06    2.19141101734924781e+00    2.72276951088804431e+01    1.15881977187260983e+01   -5.85552709316188072e-06    4.30338453227068596e-07    1.54203232712867020e-07
2046-10-12T19:27:33.510526     1.50006025342240453e+08   -9.02803140939785913e+06   -3.10170146553692408e+06    1.76529879190333783e+00    2.72561806346398150e+01    1.15982156386158461e+01   -5.86212118988373981e-06    3.52979925714347851e-07    1.21277438740351088e-07
2046-10-13T15:39:42.261968     1.50118904522962451e+08   -7.04485819274722971e+06   -2.25788604645122215e+06    1.33875061340144841e+00    2.72790363056113314e+01    1.16058375624539494e+01   -5.86751524114388364e-06    2.75523183824469340e-07    8.83157835463295824e-08
2046-10-14T11:51:51.013411     1.50200748222799480e+08   -5.06022762466311827e+06   -1.41360348948015738e+06    9.11853826938664236e-01    2.72962555447866606e+01    1.16110611230909431e+01   -5.87170742483749522e-06    1.97983798960352313e-07    5.53248970019655178e-08
2046-10-15T08:03:59.764854     1.50251534239461839e+08   -3.07454984921733849e+06   -5.69028299840827473e+05    4.84695903644376536e-01    2.73078329090721255e+01    1.16138844361348337e+01   -5.87469610120273648e-06    1.20377381210775625e-07    2.23114245492369284e-08
2046-10-16T04:16:08.516296     1.50271246729470313e+08   -1.08823536892807856e+06    2.75664896097991616e+05    5.73644266160000527e-02    2.73137640919846483e+01    1.16143061010288147e+01   -5.87647983416081671e-06    4.27195761090340235e-08   -1.07179743030349626e-08
2046-10-17T00:28:17.267740     1.50259876240885258e+08    8.98305048034891486e+05    1.12030139043392055e+06   -3.70052924547204398e-01    2.73140459261136783e+01    1.16123252020211307e+01   -5.87705740858207988e-06   -3.49739385450324219e-08   -4.37566274341278339e-08
2046-10-17T20:40:26.019183     1.50217419726977080e+08    2.88466045379512943e+06    1.96470643034194224e+06   -7.97468390318111897e-01    2.73086763853541932e+01    1.16079413090308847e+01   -5.87642784348581793e-06   -1.12687455800867142e-07   -7.67978515178905149e-08
2046-10-18T16:52:34.770625     1.50143880545838267e+08    4.87041980183303170e+06    2.80870525253994390e+06   -1.22479414862748692e+00    2.72976545869153640e+01    1.16011544784133118e+01   -5.87459040116083955e-06   -1.90405242611116240e-07   -1.09834953380781695e-07
2046-10-19T13:04:43.522068     1.50039268450936645e+08    6.85517202513618767e+06    3.65212311647052877e+06   -1.65194233276541924e+00    2.72809807931093893e+01    1.15919652536280662e+01   -5.87154459222965986e-06   -2.68111542823201800e-07   -1.42861231311398788e-07
2046-10-20T09:16:52.273512     1.49903599577610046e+08    8.83850611340528727e+06    4.49478533706081472e+06   -2.07882504950241476e+00    2.72586564129249815e+01    1.15803746658140003e+01   -5.86729017661917311e-06   -3.45790580109174885e-07   -1.75869976321586056e-07
2046-10-21T05:29:01.024954     1.49736896430502117e+08    1.08200111912837252e+07    5.33651731792190298e+06   -2.50535439713407015e+00    2.72306840033900528e+01    1.15663842342740093e+01   -5.86182716048955517e-06   -4.23426560833737378e-07   -2.08854473359324155e-07
2046-10-22T01:41:09.776397     1.49539187876939535e+08    1.27992765995794684e+07    6.17714458584973589e+06   -2.93144248315325839e+00    2.71970672707280592e+01    1.15499959668734267e+01   -5.85515578907850375e-06   -5.01003676858358036e-07   -2.41808002472308666e-07
2046-10-22T21:53:18.527840     1.49310509151249975e+08    1.47758919814475887e+07    7.01649282748895884e+06   -3.35700144125379563e+00    2.71578110713126186e+01    1.15312123603555268e+01   -5.84727653544091455e-06   -5.78506108287423876e-07   -2.74723839924650564e-07
2046-10-23T18:05:27.279283     1.49050901875021428e+08    1.67494473755017892e+07    7.85438792902175337e+06   -3.78194344736953703e+00    2.71129214124247824e+01    1.15100364005776310e+01   -5.83819008520519605e-06   -6.55918026146890018e-07   -3.07595259263232411e-07
2046-10-24T14:17:36.030726     1.48760414098302454e+08    1.87195333178236671e+07    8.69065601974283159e+06   -4.20618073445272866e+00    2.70624054528175897e+01    1.14864715626713494e+01   -5.82789731717827591e-06   -7.33223595004735723e-07   -3.40415532336857716e-07
2046-10-25T10:29:44.782169     1.48439100366743267e+08    2.06857409548374861e+07    9.52512352038293891e+06   -4.62962560569581338e+00    2.70062715030923641e+01    1.14605218111305014e+01   -5.81639927984833944e-06   -8.10406975531739227e-07   -3.73177930267800761e-07
2046-10-26T06:36:48.673575     1.48088561493249118e+08    2.26394476944124401e+07    1.03541319061175659e+07   -5.05042114062396585e+00    2.69447995251764745e+01    1.14323153140375098e+01   -5.80375350240267895e-06   -8.87129685387535095e-07   -4.05738811762889495e-07
2046-10-27T02:43:52.564980     1.47707581191626281e+08    2.45885013150150925e+07    1.11810121355056986e+07   -5.47025764232214406e+00    2.68777764194115640e+01    1.14017531517988608e+01   -5.78991570068121103e-06   -9.63699862780750405e-07   -4.38228982678251879e-07
2046-10-27T22:50:56.456386     1.47296232065271646e+08    2.65325002151774392e+07    1.20055938015717957e+07   -5.88904884976666310e+00    2.68052137982645640e+01    1.13688406856167621e+01   -5.77488783840032186e-06   -1.04010189070542183e-06   -4.70641813079972083e-07
2046-10-28T18:58:00.347792     1.46854592912488163e+08    2.84710436422355995e+07    1.28277068887073249e+07   -6.30670865103469946e+00    2.67271244054437815e+01    1.13335837569119224e+01   -5.75867207301580420e-06   -1.11632014806469853e-06   -5.02970672142078354e-07
2046-10-29T15:05:04.239196     1.46382748756525844e+08    3.04037318022872396e+07    1.36471818195363376e+07   -6.72315109807796141e+00    2.66435221159123437e+01    1.12959886872690607e+01   -5.74127077547183627e-06   -1.19233901734330412e-06   -5.35208931378165667e-07
2046-10-30T11:12:08.130602     1.45880790854730010e+08    3.23301659568249583e+07    1.44638494960302599e+07   -7.13829042278390347e+00    2.65544219353748296e+01    1.12560622781603250e+01   -5.72268654611941341e-06   -1.26814289148994422e-06   -5.67349967545643319e-07
2046-10-31T07:19:12.022008     1.45348816691094220e+08    3.42499485089609772e+07    1.52775413361291438e+07   -7.55204105405130122e+00    2.64598399992939655e+01    1.12138118104701814e+01   -5.70292222681112723e-06   -1.34371618001232007e-06   -5.99387165223777590e-07
2046-11-01T03:26:15.913413     1.44786929956517220e+08    3.61626830821396112e+07    1.60880893071188703e+07   -7.96431763560294748e+00    2.63597935714944818e+01    1.11692450438454571e+01   -5.68198090915992498e-06   -1.41904331428237186e-06   -6.31313919064453683e-07
2046-11-01T23:33:19.804819     1.44195240521062016e+08    3.80679745942340791e+07    1.68953259570135325e+07   -8.37503504425825085e+00    2.62543010424112033e+01    1.11223702158941524e+01   -5.65986593898376917e-06   -1.49410875205604817e-06   -6.63123635717588660e-07
2046-11-02T19:40:23.696225     1.43573864402516186e+08    3.99654293299242109e+07    1.76990844451926202e+07   -8.78410840838851747e+00    2.61433819270384546e+01    1.10731960412566774e+01   -5.63658091690044957e-06   -1.56889698120049236e-06   -6.94809735428004005e-07
2046-11-03T15:47:27.587630     1.42922923735552192e+08    4.18546550142514557e+07    1.84991985735421032e+07   -9.19145312627765776e+00    2.60270568626378989e+01    1.10217317105731958e+01   -5.61212969512253248e-06   -1.64339252263930065e-06   -7.26365653308532564e-07
